[
    [
        "COSMOS 2433 (720)",
        "1 32275U 07052A   26141.16795463 -.00000037  00000+0  00000+0 0  9997",
        "2 32275  65.5932 316.8426 0001593 186.6019 173.3930  2.13103960144482"
    ],
    [
        "COSMOS 2432 (719)",
        "1 32276U 07052B   26140.53591589 -.00000037  00000+0  00000+0 0  9991",
        "2 32276  65.6091 316.9910 0008143 336.0455 203.0511  2.13103103144498"
    ],
    [
        "COSMOS 2434 (721)",
        "1 32393U 07065A   26141.40542951  .00000028  00000+0  00000+0 0  9990",
        "2 32393  64.3157 192.8189 0001038   1.8685  70.2770  2.13101353143208"
    ],
    [
        "COSMOS 2436 (723)",
        "1 32395U 07065C   26142.17704934  .00000025  00000+0  00000+0 0  9995",
        "2 32395  64.3244 192.8648 0017121 356.1086  80.4224  2.13100136143179"
    ],
    [
        "COSMOS 2456 (730)",
        "1 36111U 09070A   26142.27351532 -.00000016  00000+0  00000+0 0  9997",
        "2 36111  64.9970  71.8554 0005558 323.4601 212.6467  2.13103516127876"
    ],
    [
        "COSMOS 2457 (733)",
        "1 36112U 09070B   26140.72355634 -.00000010  00000+0  00000+0 0  9997",
        "2 36112  64.9819  71.7531 0001605 137.2345  57.4528  2.13101058127847"
    ],
    [
        "COSMOS 2460 (732)",
        "1 36402U 10007C   26141.39399969 -.00000036  00000+0  00000+0 0  9992",
        "2 36402  65.4368 315.3728 0002175  89.3837 261.6495  2.13106126126151"
    ],
    [
        "COSMOS 2476 (744)",
        "1 37867U 11064A   26141.46486641 -.00000008  00000+0  00000+0 0  9993",
        "2 37867  65.2558  73.7730 0023302 240.9779 303.0932  2.13103649113193"
    ],
    [
        "COSMOS 2477 (745)",
        "1 37868U 11064B   26141.22290223 -.00000007  00000+0  00000+0 0  9996",
        "2 37868  65.2622  73.8605 0020514 242.6994 296.1650  2.13102838113185"
    ],
    [
        "COSMOS 2475 (743)",
        "1 37869U 11064C   26142.22406101 -.00000011  00000+0  00000+0 0  9997",
        "2 37869  65.2698  73.8479 0026485 254.8690 287.2807  2.13101685113217"
    ],
    [
        "COSMOS 2485 (747)",
        "1 39155U 13019A   26141.16219913 -.00000005  00000+0  00000+0 0  9997",
        "2 39155  65.4056  74.5110 0023730 236.3300 123.4372  2.13103067101705"
    ],
    [
        "COSMOS 2492 (754)",
        "1 39620U 14012A   26140.18259422 -.00000036  00000+0  00000+0 0  9992",
        "2 39620  65.3143 314.8875 0010943 329.1830  30.7466  2.13103163 94642"
    ],
    [
        "COSMOS 2500 (755)",
        "1 40001U 14032A   26142.22972750 -.00000037  00000+0  00000+0 0  9993",
        "2 40001  65.2508 314.5676 0006431 181.7486 178.2452  2.13105746 92902"
    ],
    [
        "COSMOS 2501 (702K)",
        "1 40315U 14075A   26140.14518536  .00000041  00000+0  00000+0 0  9999",
        "2 40315  63.6145 191.3429 0022339 211.7322 148.2107  2.13101322 89258"
    ],
    [
        "COSMOS 2514 (751)",
        "1 41330U 16008A   26142.00661393 -.00000037  00000+0  00000+0 0  9998",
        "2 41330  65.0379 313.9047 0010317 196.8307 163.1301  2.13102583 80060"
    ],
    [
        "COSMOS 2522 (752)",
        "1 42939U 17055A   26141.84447921  .00000026  00000+0  00000+0 0  9994",
        "2 42939  64.0770 192.7812 0010385 239.1985 120.7701  2.13101795 67412"
    ],
    [
        "COSMOS 2527 (756)",
        "1 43508U 18053A   26140.39819558 -.00000004  00000+0  00000+0 0  9991",
        "2 43508  65.5635  74.8340 0007830 245.6373 114.2721  2.13101963 61681"
    ],
    [
        "COSMOS 2529 (757)",
        "1 43687U 18086A   26138.14863914  .00000068  00000+0  00000+0 0  9999",
        "2 43687  64.2929 193.6085 0011215 256.0071 103.9560  2.13102075 58643"
    ],
    [
        "COSMOS 2534 (758)",
        "1 44299U 19030A   26142.20344965  .00000025  00000+0  00000+0 0  9994",
        "2 44299  64.3664 193.4915 0012876 275.5760  89.6514  2.13102338 54372"
    ],
    [
        "COSMOS 2544 (759)",
        "1 44850U 19088A   26141.28142542 -.00000005  00000+0  00000+0 0  9993",
        "2 44850  65.5519  74.6283 0014030 261.3236  98.5111  2.13102115 50146"
    ],
    [
        "COSMOS 2545 (760)",
        "1 45358U 20018A   26141.00734315 -.00000037  00000+0  00000+0 0  9992",
        "2 45358  64.3718 313.3743 0007464 233.4648 126.4596  2.13102364 48086"
    ],
    [
        "COSMOS 2547 (705K)",
        "1 46805U 20075A   26142.13517808  .00000025  00000+0  00000+0 0  9990",
        "2 46805  64.5977 193.3457 0009199 240.3469 119.6317  2.13100334 43351"
    ],
    [
        "COSMOS 2557 (706K)",
        "1 52984U 22075A   26141.83039512 -.00000040  00000+0  00000+0 0  9992",
        "2 52984  64.3147 315.4142 0010110 278.3928  81.4886  2.13101891 30157"
    ],
    [
        "COSMOS 2559 (707K)",
        "1 54031U 22130A   26139.30364975 -.00000039  00000+0  00000+0 0  9990",
        "2 54031  64.2945 315.5867 0012125 176.3720 183.6319  2.13101396 28071"
    ],
    [
        "COSMOS 2564 (761)",
        "1 54377U 22161A   26141.49333039  .00000027  00000+0  00000+0 0  9993",
        "2 54377  64.7395 193.5978 0011727 222.8427 137.1382  2.13101985 27069"
    ],
    [
        "COSMOS 2569 (703K)",
        "1 57517U 23114A   26141.97496128 -.00000011  00000+0  00000+0 0  9997",
        "2 57517  65.2882  73.5039 0011661 296.5241  63.3520  2.13103703 21708"
    ],
    [
        "COSMOS 2584 (704K)",
        "1 63130U 25042A   26140.92332502 -.00000007  00000+0  00000+0 0  9991",
        "2 63130  65.0698  73.7284 0006133 233.0427 126.8949  2.13103738  9460"
    ],
    [
        "COSMOS 2596 (708K)",
        "1 65590U 25206B   26140.53574256 -.00000038  00000+0  00000+0 0  9990",
        "2 65590  64.6521 315.9473 0011199 315.4946 223.7566  2.13100430  5321"
    ]
]